CCSDS_OMM_VERS = 2.0
CREATION_DATE  = 
ORIGINATOR     = 

OBJECT_NAME    = IDEFIX & ARIANE 42P R/B
OBJECT_ID      = 2002-021B
CENTER_NAME    = EARTH
REF_FRAME      = TEME
TIME_SYSTEM    = UTC
MEAN_ELEMENT_THEORY = SGP/SGP4

EPOCH          = 2026-02-05T18:02:48.436800
MEAN_MOTION    = 14.31003005
ECCENTRICITY   = .0010717
INCLINATION    = 98.5839
RA_OF_ASC_NODE = 335.7467
ARG_OF_PERICENTER = 283.7234
MEAN_ANOMALY   = 76.2756

EPHEMERIS_TYPE = 0
CLASSIFICATION_TYPE = U
NORAD_CAT_ID   = 27422
ELEMENT_SET_NO = 999
REV_AT_EPOCH   = 23945
BSTAR          = .20426E-3
MEAN_MOTION_DOT = .494E-5
MEAN_MOTION_DDOT = 0

CCSDS_OMM_VERS = 2.0
CREATION_DATE  = 
ORIGINATOR     = 

OBJECT_NAME    = AQUA
OBJECT_ID      = 2002-022A
CENTER_NAME    = EARTH
REF_FRAME      = TEME
TIME_SYSTEM    = UTC
MEAN_ELEMENT_THEORY = SGP/SGP4

EPOCH          = 2026-02-05T20:27:55.992096
MEAN_MOTION    = 14.61897807
ECCENTRICITY   = .0001611
INCLINATION    = 98.4119
RA_OF_ASC_NODE = 3.6525
ARG_OF_PERICENTER = 55.2963
MEAN_ANOMALY   = 334.9159

EPHEMERIS_TYPE = 0
CLASSIFICATION_TYPE = U
NORAD_CAT_ID   = 27424
ELEMENT_SET_NO = 999
REV_AT_EPOCH   = 26408
BSTAR          = .35082E-3
MEAN_MOTION_DOT = .1706E-4
MEAN_MOTION_DDOT = 0

CCSDS_OMM_VERS = 2.0
CREATION_DATE  = 
ORIGINATOR     = 

OBJECT_NAME    = CZ-4B R/B
OBJECT_ID      = 2002-024C
CENTER_NAME    = EARTH
REF_FRAME      = TEME
TIME_SYSTEM    = UTC
MEAN_ELEMENT_THEORY = SGP/SGP4

EPOCH          = 2026-02-05T18:10:24.339360
MEAN_MOTION    = 14.14541943
ECCENTRICITY   = .0051113
INCLINATION    = 98.8907
RA_OF_ASC_NODE = 90.3139
ARG_OF_PERICENTER = 113.3907
MEAN_ANOMALY   = 357.6937

EPHEMERIS_TYPE = 0
CLASSIFICATION_TYPE = U
NORAD_CAT_ID   = 27432
ELEMENT_SET_NO = 999
REV_AT_EPOCH   = 22472
BSTAR          = .61874E-4
MEAN_MOTION_DOT = .76E-6
MEAN_MOTION_DDOT = 0

CCSDS_OMM_VERS = 2.0
CREATION_DATE  = 
ORIGINATOR     = 

OBJECT_NAME    = MIDORI II (ADEOS-II)
OBJECT_ID      = 2002-056A
CENTER_NAME    = EARTH
REF_FRAME      = TEME
TIME_SYSTEM    = UTC
MEAN_ELEMENT_THEORY = SGP/SGP4

EPOCH          = 2026-02-05T19:28:12.037152
MEAN_MOTION    = 14.29260745
ECCENTRICITY   = .0002161
INCLINATION    = 98.7715
RA_OF_ASC_NODE = 355.0807
ARG_OF_PERICENTER = 87.7240
MEAN_ANOMALY   = 272.4189

EPHEMERIS_TYPE = 0
CLASSIFICATION_TYPE = U
NORAD_CAT_ID   = 27597
ELEMENT_SET_NO = 999
REV_AT_EPOCH   = 20574
BSTAR          = .22975E-3
MEAN_MOTION_DOT = .539E-5
MEAN_MOTION_DDOT = 0

CCSDS_OMM_VERS = 2.0
CREATION_DATE  = 
ORIGINATOR     = 

OBJECT_NAME    = H-2A R/B
OBJECT_ID      = 2002-056E
CENTER_NAME    = EARTH
REF_FRAME      = TEME
TIME_SYSTEM    = UTC
MEAN_ELEMENT_THEORY = SGP/SGP4

EPOCH          = 2026-02-05T19:31:46.356672
MEAN_MOTION    = 14.33737886
ECCENTRICITY   = .0069002
INCLINATION    = 98.3146
RA_OF_ASC_NODE = 358.4044
ARG_OF_PERICENTER = 256.4713
MEAN_ANOMALY   = 160.9591

EPHEMERIS_TYPE = 0
CLASSIFICATION_TYPE = U
NORAD_CAT_ID   = 27601
ELEMENT_SET_NO = 999
REV_AT_EPOCH   = 20954
BSTAR          = .19681E-3
MEAN_MOTION_DOT = .519E-5
MEAN_MOTION_DDOT = 0

CCSDS_OMM_VERS = 2.0
CREATION_DATE  = 
ORIGINATOR     = 

OBJECT_NAME    = CZ-4B R/B
OBJECT_ID      = 2003-049C
CENTER_NAME    = EARTH
REF_FRAME      = TEME
TIME_SYSTEM    = UTC
MEAN_ELEMENT_THEORY = SGP/SGP4

EPOCH          = 2026-02-05T16:21:03.112128
MEAN_MOTION    = 14.54984744
ECCENTRICITY   = .004762
INCLINATION    = 98.6843
RA_OF_ASC_NODE = 30.3397
ARG_OF_PERICENTER = 330.7033
MEAN_ANOMALY   = 29.1494

EPHEMERIS_TYPE = 0
CLASSIFICATION_TYPE = U
NORAD_CAT_ID   = 28059
ELEMENT_SET_NO = 999
REV_AT_EPOCH   = 18194
BSTAR          = .19601E-3
MEAN_MOTION_DOT = .805E-5
MEAN_MOTION_DDOT = 0

CCSDS_OMM_VERS = 2.0
CREATION_DATE  = 
ORIGINATOR     = 

OBJECT_NAME    = CZ-2C R/B
OBJECT_ID      = 2004-012C
CENTER_NAME    = EARTH
REF_FRAME      = TEME
TIME_SYSTEM    = UTC
MEAN_ELEMENT_THEORY = SGP/SGP4

EPOCH          = 2026-02-05T17:14:10.813344
MEAN_MOTION    = 15.60892307
ECCENTRICITY   = .0016264
INCLINATION    = 97.7308
RA_OF_ASC_NODE = 99.0641
ARG_OF_PERICENTER = 70.4237
MEAN_ANOMALY   = 289.8774

EPHEMERIS_TYPE = 0
CLASSIFICATION_TYPE = U
NORAD_CAT_ID   = 28222
ELEMENT_SET_NO = 999
REV_AT_EPOCH   = 19928
BSTAR          = .79822E-3
MEAN_MOTION_DOT = .67448E-3
MEAN_MOTION_DDOT = 0

CCSDS_OMM_VERS = 2.0
CREATION_DATE  = 
ORIGINATOR     = 

OBJECT_NAME    = SL-16 R/B
OBJECT_ID      = 2004-021B
CENTER_NAME    = EARTH
REF_FRAME      = TEME
TIME_SYSTEM    = UTC
MEAN_ELEMENT_THEORY = SGP/SGP4

EPOCH          = 2026-02-05T20:21:47.183328
MEAN_MOTION    = 14.14589437
ECCENTRICITY   = .0002858
INCLINATION    = 71.0004
RA_OF_ASC_NODE = 299.3170
ARG_OF_PERICENTER = 89.4955
MEAN_ANOMALY   = 270.6495

EPHEMERIS_TYPE = 0
CLASSIFICATION_TYPE = U
NORAD_CAT_ID   = 28353
ELEMENT_SET_NO = 999
REV_AT_EPOCH   = 11833
BSTAR          = .39041E-4
MEAN_MOTION_DOT = .27E-6
MEAN_MOTION_DDOT = 0

CCSDS_OMM_VERS = 2.0
CREATION_DATE  = 
ORIGINATOR     = 

OBJECT_NAME    = CZ-4B R/B
OBJECT_ID      = 2004-035C
CENTER_NAME    = EARTH
REF_FRAME      = TEME
TIME_SYSTEM    = UTC
MEAN_ELEMENT_THEORY = SGP/SGP4

EPOCH          = 2026-02-05T15:21:42.937056
MEAN_MOTION    = 15.28466215
ECCENTRICITY   = .0034254
INCLINATION    = 97.3544
RA_OF_ASC_NODE = 71.2735
ARG_OF_PERICENTER = 82.9651
MEAN_ANOMALY   = 277.5482

EPHEMERIS_TYPE = 0
CLASSIFICATION_TYPE = U
NORAD_CAT_ID   = 28415
ELEMENT_SET_NO = 999
REV_AT_EPOCH   = 17501
BSTAR          = .48365E-3
MEAN_MOTION_DOT = .13571E-3
MEAN_MOTION_DDOT = 0

CCSDS_OMM_VERS = 2.0
CREATION_DATE  = 
ORIGINATOR     = 

OBJECT_NAME    = CZ-2C R/B
OBJECT_ID      = 2004-046B
CENTER_NAME    = EARTH
REF_FRAME      = TEME
TIME_SYSTEM    = UTC
MEAN_ELEMENT_THEORY = SGP/SGP4

EPOCH          = 2026-02-05T19:00:08.002656
MEAN_MOTION    = 14.26980705
ECCENTRICITY   = .0138226
INCLINATION    = 98.1997
RA_OF_ASC_NODE = 313.7565
ARG_OF_PERICENTER = 249.0823
MEAN_ANOMALY   = 109.5517

EPHEMERIS_TYPE = 0
CLASSIFICATION_TYPE = U
NORAD_CAT_ID   = 28480
ELEMENT_SET_NO = 999
REV_AT_EPOCH   = 10395
BSTAR          = .1074E-3
MEAN_MOTION_DOT = .247E-5
MEAN_MOTION_DDOT = 0

CCSDS_OMM_VERS = 2.0
CREATION_DATE  = 
ORIGINATOR     = 

OBJECT_NAME    = ARIANE 5 R/B
OBJECT_ID      = 2004-049H
CENTER_NAME    = EARTH
REF_FRAME      = TEME
TIME_SYSTEM    = UTC
MEAN_ELEMENT_THEORY = SGP/SGP4

EPOCH          = 2026-02-05T10:18:58.642560
MEAN_MOTION    = 14.85197959
ECCENTRICITY   = .00854949
INCLINATION    = 98.2575
RA_OF_ASC_NODE = 203.6918
ARG_OF_PERICENTER = 95.5928
MEAN_ANOMALY   = 265.5044

EPHEMERIS_TYPE = 0
CLASSIFICATION_TYPE = U
NORAD_CAT_ID   = 28499
ELEMENT_SET_NO = 999
REV_AT_EPOCH   = 14100
BSTAR          = .16949123E-3
MEAN_MOTION_DOT = .1487E-4
MEAN_MOTION_DDOT = 0

CCSDS_OMM_VERS = 2.0
CREATION_DATE  = 
ORIGINATOR     = 

OBJECT_NAME    = CZ-2D R/B
OBJECT_ID      = 2005-024B
CENTER_NAME    = EARTH
REF_FRAME      = TEME
TIME_SYSTEM    = UTC
MEAN_ELEMENT_THEORY = SGP/SGP4

EPOCH          = 2026-02-05T13:05:14.141184
MEAN_MOTION    = 15.57341255
ECCENTRICITY   = .0007227
INCLINATION    = 97.3615
RA_OF_ASC_NODE = 50.5834
ARG_OF_PERICENTER = 124.1240
MEAN_ANOMALY   = 236.0702

EPHEMERIS_TYPE = 0
CLASSIFICATION_TYPE = U
NORAD_CAT_ID   = 28738
ELEMENT_SET_NO = 999
REV_AT_EPOCH   = 13477
BSTAR          = .73459E-3
MEAN_MOTION_DOT = .53915E-3
MEAN_MOTION_DDOT = 0

