IDEFIX & ARIANE 42P R/B 
1 27422U 02021B   26036.75194950  .00000494  00000+0  20426-3 0  9992
2 27422  98.5839 335.7467 0010717 283.7234  76.2756 14.31003005239454
AQUA                    
1 27424U 02022A   26036.85273139  .00001706  00000+0  35082-3 0  9994
2 27424  98.4119   3.6525 0001611  55.2963 334.9159 14.61897807264088
CZ-4B R/B               
1 27432U 02024C   26036.75722615  .00000076  00000+0  61874-4 0  9990
2 27432  98.8907  90.3139 0051113 113.3907 357.6937 14.14541943224724
MIDORI II (ADEOS-II)    
1 27597U 02056A   26036.81125043  .00000539  00000+0  22975-3 0  9998
2 27597  98.7715 355.0807 0002161  87.7240 272.4189 14.29260745205746
H-2A R/B                
1 27601U 02056E   26036.81373098  .00000519  00000+0  19681-3 0  9997
2 27601  98.3146 358.4044 0069002 256.4713 160.9591 14.33737886209543
CZ-4B R/B               
1 28059U 03049C   26036.68128602  .00000805  00000+0  19601-3 0  9992
2 28059  98.6843  30.3397 0047620 330.7033  29.1494 14.54984744181949
CZ-2C R/B               
1 28222U 04012C   26036.71818071  .00067448  00000+0  79822-3 0  9992
2 28222  97.7308  99.0641 0016264  70.4237 289.8774 15.60892307199288
SL-16 R/B               
1 28353U 04021B   26036.84846277  .00000027  00000+0  39041-4 0  9990
2 28353  71.0004 299.3170 0002858  89.4955 270.6495 14.14589437118334
CZ-4B R/B               
1 28415U 04035C   26036.64008029  .00013571  00000+0  48365-3 0  9993
2 28415  97.3544  71.2735 0034254  82.9651 277.5482 15.28466215175017
CZ-2C R/B               
1 28480U 04046B   26036.79175929  .00000247  00000+0  10740-3 0  9999
2 28480  98.1997 313.7565 0138226 249.0823 109.5517 14.26980705103955
ARIANE 5 R/B            
1 28499U 04049H   26036.42984540  .00001487  00000+0  16949-3 0  9993
2 28499  98.2575 203.6918 0085494  95.5928 265.5044 14.85197959141007
CZ-2D R/B               
1 28738U 05024B   26036.54530256  .00053915  00000+0  73459-3 0  9999
2 28738  97.3615  50.5834 0007227 124.1240 236.0702 15.57341255134778
